NORAD_CAT_ID,OBJECT_NAME,OBJECT_TYPE,EPOCH,MEAN_MOTION,ECCENTRICITY,INCLINATION,RA_OF_ASC_NODE,ARG_OF_PERICENTER,MEAN_ANOMALY,BSTAR,MEAN_MOTION_DOT,MEAN_MOTION_DDOT,TLE_LINE0,TLE_LINE1,TLE_LINE2,SEMIMAJOR_AXIS,PERIOD,APOGEE,PERIGEE,DECAYED
52502.0,STARLINK-3912,PAYLOAD,2023-10-30 17:31:05,15.08836715,0.0002021,53.2168,304.1495,87.9457,272.1766,0.0001392,1.928e-05,0.0,0 STARLINK-3912,1 52502U 22049BD  23303.72992394  .00001928  00000-0  13920-3 0  9995,2 52502  53.2168 304.1495 0002021  87.9457 272.1766 15.08836715 82715,6917.89,95.438,541.154,538.357,0.0
52502.0,STARLINK-3912,PAYLOAD,2023-10-31 09:24:57,15.08837034,0.0001701,53.2165,301.1719,97.6691,262.4494,0.00045997,7.039e-05,0.0,0 STARLINK-3912,1 52502U 22049BD  23304.39232648  .00007039  00000-0  45997-3 0  9996,2 52502  53.2165 301.1719 0001701  97.6691 262.4494 15.08837034 82658,6917.889,95.438,540.931,538.578,0.0
52502.0,STARLINK-3912,PAYLOAD,2023-10-31 17:21:52,15.08838714,0.0001707,53.2166,299.6853,95.8621,264.2566,0.00056309,8.685e-05,0.0,0 STARLINK-3912,1 52502U 22049BD  23304.72352811  .00008685  00000-0  56309-3 0  9995,2 52502  53.2166 299.6853 0001707  95.8621 264.2566 15.08838714 82700,6917.884,95.438,540.93,538.568,0.0
52502.0,STARLINK-3912,PAYLOAD,2023-11-01 04:29:34,15.08850714,0.0001683,53.2169,297.6038,96.2923,263.8261,0.00068052,0.00010562,0.0,0 STARLINK-3912,1 52502U 22049BD  23305.18720603  .00010562  00000-0  68052-3 0  9999,2 52502  53.2169 297.6038 0001683  96.2923 263.8261 15.08850714 82935,6917.848,95.437,540.877,538.548,0.0
52502.0,STARLINK-3912,PAYLOAD,2023-11-01 09:15:43,15.08858167,0.0001695,53.2168,296.7115,96.0669,264.0516,0.00086665,0.00013538,0.0,0 STARLINK-3912,1 52502U 22049BD  23305.38592390  .00013538  00000-0  86665-3 0  9997,2 52502  53.2168 296.7115 0001695  96.0669 264.0516 15.08858167 82800,6917.825,95.436,540.862,538.517,0.0
52502.0,STARLINK-3912,PAYLOAD,2023-11-01 17:12:39,15.08848639,0.0001795,53.2182,295.2262,106.0914,254.0276,0.0002894,4.322e-05,0.0,0 STARLINK-3912,1 52502U 22049BD  23305.71712401  .00004322  00000-0  28940-3 0  9994,2 52502  53.2182 295.2262 0001795 106.0914 254.0276 15.08848639 83018,6917.854,95.437,540.961,538.477,0.0
52502.0,STARLINK-3912,PAYLOAD,2023-11-02 09:06:30,15.08857287,0.0001875,53.2174,292.2523,103.5991,256.521,0.00045158,6.91e-05,0.0,0 STARLINK-3912,1 52502U 22049BD  23306.37951964  .00006910  00000-0  45158-3 0  9991,2 52502  53.2174 292.2523 0001875 103.5991 256.5210 15.08857287 82958,6917.828,95.436,540.99,538.395,0.0
52502.0,STARLINK-3912,PAYLOAD,2023-11-03 04:11:08,15.08841441,0.0001786,53.2175,288.6811,94.6101,265.5095,0.00019855,2.873e-05,0.0,0 STARLINK-3912,1 52502U 22049BD  23307.17440531  .00002873  00000-0  19855-3 0  9992,2 52502  53.2175 288.6811 0001786  94.6101 265.5095 15.08841441 83230,6917.876,95.437,540.977,538.505,0.0
52502.0,STARLINK-3912,PAYLOAD,2023-11-03 05:46:31,15.08843109,0.0001644,53.2175,288.3862,91.249,268.869,0.00027123,4.032e-05,0.0,0 STARLINK-3912,1 52502U 22049BD  23307.24064460  .00004032  00000-0  27123-3 0  9999,2 52502  53.2175 288.3862 0001644  91.2490 268.8690 15.08843109 83083,6917.871,95.437,540.873,538.599,0.0
52502.0,STARLINK-3912,PAYLOAD,2023-11-03 15:18:50,15.0884264,0.0001655,53.2176,286.603,93.6103,266.5078,0.00028621,4.27e-05,0.0,0 STARLINK-3912,1 52502U 22049BD  23307.63808594  .00004270  00000-0  28621-3 0  9994,2 52502  53.2176 286.6030 0001655  93.6103 266.5078 15.08842640 83142,6917.872,95.437,540.882,538.592,0.0
52502.0,STARLINK-3912,PAYLOAD,2023-11-04 05:37:18,15.08846178,0.0001569,53.2171,283.9304,98.6874,261.4296,0.0002953,4.416e-05,0.0,0 STARLINK-3912,1 52502U 22049BD  23308.23424535  .00004416  00000-0  29530-3 0  9992,2 52502  53.2171 283.9304 0001569  98.6874 261.4296 15.08846178 83398,6917.862,95.437,540.812,538.641,0.0
52502.0,STARLINK-3912,PAYLOAD,2023-11-04 15:09:37,15.08842832,0.0001583,53.2173,282.144,91.1951,268.9222,0.00027332,4.065e-05,0.0,0 STARLINK-3912,1 52502U 22049BD  23308.63168550  .00004065  00000-0  27332-3 0  9996,2 52502  53.2173 282.1440 0001583  91.1951 268.9222 15.08842832 83295,6917.872,95.437,540.832,538.642,0.0
52502.0,STARLINK-3912,PAYLOAD,2023-11-05 05:28:05,15.08847379,0.0001557,53.2171,279.4679,87.4286,272.6884,0.00021997,3.215e-05,0.0,0 STARLINK-3912,1 52502U 22049BD  23309.22784468  .00003215  00000-0  21997-3 0  9991,2 52502  53.2171 279.4679 0001557  87.4286 272.6884 15.08847379 83541,6917.858,95.437,540.8,538.646,0.0
52502.0,STARLINK-3912,PAYLOAD,2023-11-05 07:03:28,15.08847638,0.0001564,53.2165,279.1725,97.6245,262.4924,0.00023216,3.41e-05,0.0,0 STARLINK-3912,1 52502U 22049BD  23309.29408458  .00003410  00000-0  23216-3 0  9993,2 52502  53.2165 279.1725 0001564  97.6245 262.4924 15.08847638 83392,6917.857,95.437,540.804,538.64,0.0
52502.0,STARLINK-3912,PAYLOAD,2023-11-05 15:00:24,15.08842294,0.0001927,53.2172,277.6831,90.1874,269.9339,9.5412e-05,1.231e-05,0.0,0 STARLINK-3912,1 52502U 22049BD  23309.62528621  .00001231  00000-0  95412-4 0  9992,2 52502  53.2172 277.6831 0001927  90.1874 269.9339 15.08842294 83441,6917.873,95.437,541.071,538.405,0.0
52502.0,STARLINK-3912,PAYLOAD,2023-11-06 06:54:13,15.08890989,0.0001632,53.2162,274.7109,120.4749,239.6404,0.00081852,0.00012781,0.0,0 STARLINK-3912,1 52502U 22049BD  23310.28765687  .00012781  00000-0  81852-3 0  9995,2 52502  53.2162 274.7109 0001632 120.4749 239.6404 15.08890989 83707,6917.725,95.434,540.719,538.461,0.0
52502.0,STARLINK-3912,PAYLOAD,2023-11-07 03:34:16,15.08831926,0.0001393,53.2176,270.843,72.6776,287.4368,-0.0002001,-3.47e-05,0.0,0 STARLINK-3912,1 52502U 22049BD  23311.14880326 -.00003470  00000-0 -20010-3 0  9995,2 52502  53.2176 270.8430 0001393  72.6776 287.4368 15.08831926 83838,6917.905,95.438,540.734,538.806,0.0
52502.0,STARLINK-3912,PAYLOAD,2023-11-07 06:45:03,15.08820114,0.0001449,53.218,270.2486,78.5945,281.521,-0.0003963,-6.586e-05,0.0,0 STARLINK-3912,1 52502U 22049BD  23311.28128746 -.00006586  00000-0 -39630-3 0  9990,2 52502  53.2180 270.2486 0001449  78.5945 281.5210 15.08820114 83853,6917.941,95.439,540.809,538.804,0.0
52502.0,STARLINK-3912,PAYLOAD,2023-11-08 03:25:03,15.08846899,0.000156,53.2187,266.3826,90.0639,270.0532,8.8827e-05,1.126e-05,0.0,0 STARLINK-3912,1 52502U 22049BD  23312.14240135  .00001126  00000-0  88827-4 0  9999,2 52502  53.2187 266.3826 0001560  90.0639 270.0532 15.08846899 83989,6917.859,95.437,540.803,538.645,0.0
52502.0,STARLINK-3912,PAYLOAD,2023-11-09 03:15:51,15.08834361,0.0001374,53.2177,261.9221,84.3044,275.8105,0.00044018,6.723e-05,0.0,0 STARLINK-3912,1 52502U 22049BD  23313.13601452  .00006723  00000-0  44018-3 0  9993,2 52502  53.2177 261.9221 0001374  84.3044 275.8105 15.08834361 84135,6917.898,95.438,540.713,538.812,0.0
52502.0,STARLINK-3912,PAYLOAD,2023-11-10 06:17:24,15.0884616,0.0001552,53.2182,256.8641,87.9242,272.1928,0.00011725,1.579e-05,0.0,0 STARLINK-3912,1 52502U 22049BD  23314.26209015  .00001579  00000-0  11725-3 0  9990,2 52502  53.2182 256.8641 0001552  87.9242 272.1928 15.08846160 84309,6917.862,95.437,540.8,538.653,0.0
52502.0,STARLINK-3912,PAYLOAD,2023-11-11 02:57:25,15.08842797,0.0001705,53.2191,252.9968,107.2272,252.8907,-2.9707e-05,-7.61e-06,0.0,0 STARLINK-3912,1 52502U 22049BD  23315.12321314 -.00000761  00000-0 -29707-4 0  9997,2 52502  53.2191 252.9968 0001705 107.2272 252.8907 15.08842797 84435,6917.872,95.437,540.916,538.557,0.0
52502.0,STARLINK-3912,PAYLOAD,2023-11-11 12:29:44,15.08839484,0.000156,53.2191,251.2166,86.1574,273.9596,2.5726e-05,1.21e-06,0.0,0 STARLINK-3912,1 52502U 22049BD  23315.52065562  .00000121  00000-0  25726-4 0  9996,2 52502  53.2191 251.2166 0001560  86.1574 273.9596 15.08839484 84332,6917.882,95.438,540.826,538.668,0.0
52502.0,STARLINK-3912,PAYLOAD,2023-11-11 20:26:40,15.08823627,0.0002082,53.2192,249.7322,122.4578,237.6616,0.00022016,3.216e-05,0.0,0 STARLINK-3912,1 52502U 22049BD  23315.85185907  .00003216  00000-0  22016-3 0  9994,2 52502  53.2192 249.7322 0002082 122.4578 237.6616 15.08823627 84542,6917.93,95.439,541.236,538.355,0.0
52502.0,STARLINK-3912,PAYLOAD,2023-11-12 02:48:12,15.08844563,0.0001297,53.2178,248.5436,98.5731,261.5409,2.5584e-05,1.19e-06,0.0,0 STARLINK-3912,1 52502U 22049BD  23316.11681314  .00000119  00000-0  25584-4 0  9990,2 52502  53.2178 248.5436 0001297  98.5731 261.5409 15.08844563 84582,6917.866,95.437,540.629,538.834,0.0
52502.0,STARLINK-3912,PAYLOAD,2023-11-12 12:20:31,15.0884544,0.0001276,53.2179,246.7598,92.7284,267.3854,1.3841e-05,-6.8e-07,0.0,0 STARLINK-3912,1 52502U 22049BD  23316.51425183 -.00000068  00000-0  13841-4 0  9991,2 52502  53.2179 246.7598 0001276  92.7284 267.3854 15.08845440 84480,6917.864,95.437,540.611,538.846,0.0
52502.0,STARLINK-3912,PAYLOAD,2023-11-12 20:17:28,15.08832355,0.0001419,53.2181,245.2727,96.8237,263.2916,-1.7599e-06,-3.16e-06,0.0,0 STARLINK-3912,1 52502U 22049BD  23316.84546402 -.00000316  00000-0 -17599-5 0  9997,2 52502  53.2181 245.2727 0001419  96.8237 263.2916 15.08832355 84534,6917.904,95.438,540.75,538.787,0.0
52502.0,STARLINK-3912,PAYLOAD,2023-11-13 01:03:37,15.08839534,0.0001406,53.218,244.3798,90.5741,269.5412,4.8614e-05,4.86e-06,0.0,0 STARLINK-3912,1 52502U 22049BD  23317.04417876  .00000486  00000-0  48614-4 0  9999,2 52502  53.2180 244.3798 0001406  90.5741 269.5412 15.08839534 84725,6917.882,95.438,540.719,538.774,0.0
52502.0,STARLINK-3912,PAYLOAD,2023-11-13 05:49:45,15.08855689,0.0001458,53.2177,243.4879,105.3717,254.7436,-6.1309e-06,-3.86e-06,0.0,0 STARLINK-3912,1 52502U 22049BD  23317.24288884 -.00000386  00000-0 -61309-5 0  9994,2 52502  53.2177 243.4879 0001458 105.3717 254.7436 15.08855689 84750,6917.832,95.437,540.706,538.689,0.0
52502.0,STARLINK-3912,PAYLOAD,2023-11-13 12:11:18,15.08841049,0.0001456,53.2181,242.2979,89.1253,270.9906,0.00011047,1.471e-05,0.0,0 STARLINK-3912,1 52502U 22049BD  23317.50785628  .00001471  00000-0  11047-3 0  9997,2 52502  53.2181 242.2979 0001456  89.1253 270.9906 15.08841049 84639,6917.877,95.437,540.749,538.735,0.0
